1 08820U 76039A   03108.76461753  .00000007  00000-0  10000-3 0  9254
2 08820 109.8110 161.2644 0044667 314.1753  45.5325  6.38664612373262
